KUIPER-00008            
1 63724U 25088A   25204.25002315 -.00057416  00000+0 -39869-2 0  9997
2 63724  51.8869  53.0960 0011734  52.9954 117.2546 15.05177610 13636
KUIPER-00009            
1 63725U 25088B   25204.58336806 -.00723615  00000+0 -34957-1 0  9992
2 63725  51.8758  46.0001 0012602  82.6565 332.4935 15.20476776 13764
KUIPER-00010            
1 63726U 25088C   25203.84649990  .00013230  00000+0  38277-3 0  9996
2 63726  51.8645  48.7316 0009845  62.5392 297.6593 15.35889015 13287
KUIPER-00011            
1 63727U 25088D   25203.87205340 -.00002706  00000+0 -66120-4 0  9994
2 63727  51.8580  48.8425 0011532  69.6105 290.6118 15.35437933 13424
KUIPER-00012            
1 63728U 25088E   25204.00076712  .00012170  00000+0  35694-3 0  9995
2 63728  51.8569  48.1942 0011659  71.3298 288.8952 15.35525765 13394
KUIPER-00013            
1 63729U 25088F   25204.58336806 -.00635223  00000+0 -32261-1 0  9999
2 63729  51.8752  46.5651 0007314  49.9180  87.1181 15.18917672 13568
KUIPER-00014            
1 63730U 25088G   25204.58336806 -.00632023  00000+0 -32940-1 0  9990
2 63730  51.8786  47.4696 0010062  69.2973  17.0543 15.17980235 13361
KUIPER-00015            
1 63731U 25088H   25204.16667824 -.00007541  00000+0 -64840-3 0  9999
2 63731  51.8887  57.1127 0011044  51.2617  38.7274 14.95632724 13653
